{
    "crs": {
        "properties": {
            "name": "urn:ogc:def:crs:EPSG::3857"
        },
        "type": "name"
    },
    "features": [
        {
            "geometry": {
                "coordinates": [
                    0.8172850012779236,
                    -0.12863700091838837
                ],
                "type": "Point"
            },
            "properties": {
                "frame": "map",
                "id": 0
            },
            "type": "Feature"
        },
        {
            "geometry": {
                "coordinates": [
                    0.856814980506897,
                    -0.8612790107727051
                ],
                "type": "Point"
            },
            "properties": {
                "frame": "map",
                "id": 1
            },
            "type": "Feature"
        },
        {
            "geometry": {
                "coordinates": [
                    0.8843830227851868,
                    -1.6647690534591675
                ],
                "type": "Point"
            },
            "properties": {
                "frame": "map",
                "id": 2
            },
            "type": "Feature"
        },
        {
            "geometry": {
                "coordinates": [
                    0.91628497838974,
                    -2.4727630615234375
                ],
                "type": "Point"
            },
            "properties": {
                "frame": "map",
                "id": 3
            },
            "type": "Feature"
        },
        {
            "geometry": {
                "coordinates": [
                    1.2162439823150635,
                    -0.1104390025138855
                ],
                "type": "Point"
            },
            "properties": {
                "frame": "map",
                "id": 4
            },
            "type": "Feature"
        },
        {
            "geometry": {
                "coordinates": [
                    0.46314799785614014,
                    -0.868478000164032
                ],
                "type": "Point"
            },
            "properties": {
                "frame": "map",
                "id": 5
            },
            "type": "Feature"
        },
        {
            "geometry": {
                "coordinates": [
                    1.26643705368042,
                    -0.8438839912414551
                ],
                "type": "Point"
            },
            "properties": {
                "frame": "map",
                "id": 6
            },
            "type": "Feature"
        },
        {
            "geometry": {
                "coordinates": [
                    0.4489009976387024,
                    -1.679090976715088
                ],
                "type": "Point"
            },
            "properties": {
                "frame": "map",
                "id": 7
            },
            "type": "Feature"
        },
        {
            "geometry": {
                "coordinates": [
                    1.3261009454727173,
                    -1.6602449417114258
                ],
                "type": "Point"
            },
            "properties": {
                "frame": "map",
                "id": 8
            },
            "type": "Feature"
        },
        {
            "geometry": {
                "coordinates": [
                    1.3216370344161987,
                    -2.470319986343384
                ],
                "type": "Point"
            },
            "properties": {
                "frame": "map",
                "id": 9
            },
            "type": "Feature"
        },
        {
            "geometry": {
                "coordinates": [
                    0.48899900913238525,
                    -2.4965291023254395
                ],
                "type": "Point"
            },
            "properties": {
                "frame": "map",
                "id": 10
            },
            "type": "Feature"
        },
        {
            "geometry": {
                "type": "MultiLineString"
            },
            "properties": {
                "cost": 0.0,
                "endid": 4,
                "id": 11,
                "overridable": true,
                "startid": 0
            },
            "type": "Feature"
        },
        {
            "geometry": {
                "type": "MultiLineString"
            },
            "properties": {
                "cost": 0.0,
                "endid": 1,
                "id": 13,
                "overridable": true,
                "startid": 0
            },
            "type": "Feature"
        },
        {
            "geometry": {
                "type": "MultiLineString"
            },
            "properties": {
                "cost": 0.0,
                "endid": 2,
                "id": 14,
                "overridable": true,
                "startid": 1
            },
            "type": "Feature"
        },
        {
            "geometry": {
                "type": "MultiLineString"
            },
            "properties": {
                "cost": 0.0,
                "endid": 6,
                "id": 20,
                "overridable": true,
                "startid": 1
            },
            "type": "Feature"
        },
        {
            "geometry": {
                "type": "MultiLineString"
            },
            "properties": {
                "cost": 0.0,
                "endid": 5,
                "id": 21,
                "overridable": true,
                "startid": 1
            },
            "type": "Feature"
        },
        {
            "geometry": {
                "type": "MultiLineString"
            },
            "properties": {
                "cost": 0.0,
                "endid": 0,
                "id": 32,
                "overridable": true,
                "startid": 1
            },
            "type": "Feature"
        },
        {
            "geometry": {
                "type": "MultiLineString"
            },
            "properties": {
                "cost": 0.0,
                "endid": 3,
                "id": 15,
                "overridable": true,
                "startid": 2
            },
            "type": "Feature"
        },
        {
            "geometry": {
                "type": "MultiLineString"
            },
            "properties": {
                "cost": 0.0,
                "endid": 8,
                "id": 19,
                "overridable": true,
                "startid": 2
            },
            "type": "Feature"
        },
        {
            "geometry": {
                "type": "MultiLineString"
            },
            "properties": {
                "cost": 0.0,
                "endid": 7,
                "id": 25,
                "overridable": true,
                "startid": 2
            },
            "type": "Feature"
        },
        {
            "geometry": {
                "type": "MultiLineString"
            },
            "properties": {
                "cost": 0.0,
                "endid": 1,
                "id": 29,
                "overridable": true,
                "startid": 2
            },
            "type": "Feature"
        },
        {
            "geometry": {
                "type": "MultiLineString"
            },
            "properties": {
                "cost": 0.0,
                "endid": 10,
                "id": 16,
                "overridable": true,
                "startid": 3
            },
            "type": "Feature"
        },
        {
            "geometry": {
                "type": "MultiLineString"
            },
            "properties": {
                "cost": 0.0,
                "endid": 9,
                "id": 17,
                "overridable": true,
                "startid": 3
            },
            "type": "Feature"
        },
        {
            "geometry": {
                "type": "MultiLineString"
            },
            "properties": {
                "cost": 0.0,
                "endid": 2,
                "id": 24,
                "overridable": true,
                "startid": 3
            },
            "type": "Feature"
        },
        {
            "geometry": {
                "type": "MultiLineString"
            },
            "properties": {
                "cost": 0.0,
                "endid": 0,
                "id": 12,
                "overridable": true,
                "startid": 4
            },
            "type": "Feature"
        },
        {
            "geometry": {
                "type": "MultiLineString"
            },
            "properties": {
                "cost": 0.0,
                "endid": 1,
                "id": 31,
                "overridable": true,
                "startid": 5
            },
            "type": "Feature"
        },
        {
            "geometry": {
                "type": "MultiLineString"
            },
            "properties": {
                "cost": 0.0,
                "endid": 1,
                "id": 30,
                "overridable": true,
                "startid": 6
            },
            "type": "Feature"
        },
        {
            "geometry": {
                "type": "MultiLineString"
            },
            "properties": {
                "cost": 0.0,
                "endid": 2,
                "id": 26,
                "overridable": true,
                "startid": 7
            },
            "type": "Feature"
        },
        {
            "geometry": {
                "type": "MultiLineString"
            },
            "properties": {
                "cost": 0.0,
                "endid": 2,
                "id": 27,
                "overridable": true,
                "startid": 8
            },
            "type": "Feature"
        },
        {
            "geometry": {
                "type": "MultiLineString"
            },
            "properties": {
                "cost": 0.0,
                "endid": 3,
                "id": 23,
                "overridable": true,
                "startid": 9
            },
            "type": "Feature"
        },
        {
            "geometry": {
                "type": "MultiLineString"
            },
            "properties": {
                "cost": 0.0,
                "endid": 3,
                "id": 22,
                "overridable": true,
                "startid": 10
            },
            "type": "Feature"
        }
    ],
    "name": "graph",
    "type": "FeatureCollection"
}
